NORAD_CAT_ID,OBJECT_NAME,OBJECT_TYPE,EPOCH,MEAN_MOTION,ECCENTRICITY,INCLINATION,RA_OF_ASC_NODE,ARG_OF_PERICENTER,MEAN_ANOMALY,BSTAR,MEAN_MOTION_DOT,MEAN_MOTION_DDOT,TLE_LINE0,TLE_LINE1,TLE_LINE2,SEMIMAJOR_AXIS,PERIOD,APOGEE,PERIGEE,DECAYED
51128.0,STARLINK-3400,PAYLOAD,2022-02-13 14:00:01,15.73188239,0.0002677,53.2169,148.0785,27.3187,123.8563,0.00031042,0.00043151,0.0,0 STARLINK-3400,1 51128U 22005AA  22044.58334491  .00043151  00000-0  31042-3 0  9992,2 51128  53.2169 148.0785 0002677  27.3187 123.8563 15.73188239  3725,6727.929,91.534,351.595,347.99300000000005,0.0
51128.0,STARLINK-3400,PAYLOAD,2022-02-14 12:00:02,15.73198446,0.0002604,53.2164,143.5423,20.3174,285.5463,6.4138e-06,2.78e-06,0.0,0 STARLINK-3400,1 51128U 22005AA  22045.50002315  .00000278  00000-0  64138-5 0  9999,2 51128  53.2164 143.5423 0002604  20.3174 285.5463 15.73198446  5489,6727.9,91.533,351.517,348.01300000000015,0.0
51128.0,STARLINK-3400,PAYLOAD,2022-02-14 14:00:01,15.731812,0.0002652,53.2165,143.1305,19.2711,38.7625,0.00032521,0.00045235,0.0,0 STARLINK-3400,1 51128U 22005AA  22045.58334491  .00045235  00000-0  32521-3 0  9991,2 51128  53.2165 143.1305 0002652  19.2711  38.7625 15.73181200  3725,6727.949000000001,91.534,351.598,348.03,0.0
51128.0,STARLINK-3400,PAYLOAD,2022-02-14 20:00:01,15.73229648,0.0002689,53.216,141.8932,15.8725,18.8267,-0.00027293,-0.00038806,0.0,0 STARLINK-3400,1 51128U 22005AA  22045.83334491 -.00038806  00000-0 -27293-3 0  9997,2 51128  53.2160 141.8932 0002689  15.8725  18.8267 15.73229648  3706,6727.811,91.531,351.485,347.867,0.0
51128.0,STARLINK-3400,PAYLOAD,2022-02-15 14:00:01,15.73204244,0.0002719,53.2168,138.1823,14.5364,310.2419,5.7907e-05,7.514e-05,0.0,0 STARLINK-3400,1 51128U 22005AA  22046.58334491  .00007514  00000-0  57907-4 0  9996,2 51128  53.2168 138.1823 0002719  14.5364 310.2419 15.73204244  5650,6727.8830000000025,91.533,351.577,347.9190000000001,0.0
51128.0,STARLINK-3400,PAYLOAD,2022-02-15 22:00:01,15.73208597,0.0002642,53.2166,136.5318,10.8933,42.8892,-0.00035895,-0.00050723,0.0,0 STARLINK-3400,1 51128U 22005AA  22046.91668981 -.00050723  00000-0 -35895-3 0  9990,2 51128  53.2166 136.5318 0002642  10.8933  42.8892 15.73208597  3707,6727.871,91.533,351.51300000000015,347.958,0.0
51128.0,STARLINK-3400,PAYLOAD,2022-02-16 04:00:00,15.73159625,0.0002538,53.2165,135.2937,11.8897,18.5222,0.00054693,0.00076715,0.0,0 STARLINK-3400,1 51128U 22005AA  22047.16667824  .00076715  00000-0  54693-3 0  9997,2 51128  53.2165 135.2937 0002538  11.8897  18.5222 15.73159625  5743,6728.01,91.536,351.583,348.168,0.0
51128.0,STARLINK-3400,PAYLOAD,2022-02-16 14:00:01,15.73205111,0.0002898,53.2164,133.2344,13.3424,218.2306,0.00035748,0.00049865,0.0,0 STARLINK-3400,1 51128U 22005AA  22047.58334491  .00049865  00000-0  35748-3 0  9990,2 51128  53.2164 133.2344 0002898  13.3424 218.2306 15.73205111  3702,6727.880999999999,91.533,351.695,347.796,0.0
51128.0,STARLINK-3400,PAYLOAD,2022-02-16 20:00:01,15.73282032,0.0002856,53.2157,131.9966,13.9457,194.3352,-0.0004467,-0.0006307999999999,0.0,0 STARLINK-3400,1 51128U 22005AA  22047.83334491 -.00063080  00000-0 -44670-3 0  9999,2 51128  53.2157 131.9966 0002856  13.9457 194.3352 15.73282032  5855,6727.661,91.528,351.4480000000001,347.605,0.0
51128.0,STARLINK-3400,PAYLOAD,2022-02-16 22:00:00,15.73290596,0.0002785,53.2159,131.5836,14.4988,306.0302,-0.00068719,-0.00096363,0.0,0 STARLINK-3400,1 51128U 22005AA  22047.91667824 -.00096363  00000-0 -68719-3 0  9997,2 51128  53.2159 131.5836 0002785  14.4988 306.0302 15.73290596  3719,6727.637,91.528,351.376,347.62800000000016,0.0
51128.0,STARLINK-3400,PAYLOAD,2022-02-17 14:00:01,15.7316701,0.0003005,53.2162,128.2857,14.5004,123.9712,0.00045417,0.00063522,0.0,0 STARLINK-3400,1 51128U 22005AA  22048.58334491  .00063522  00000-0  45417-3 0  9991,2 51128  53.2162 128.2857 0003005  14.5004 123.9712 15.73167010  3675,6727.989000000001,91.535,351.876,347.832,0.0
51128.0,STARLINK-3400,PAYLOAD,2022-02-17 22:00:00,15.73251022,0.000288,53.2161,126.6349,13.0863,214.2909,-0.00066083,-0.00092577,0.0,0 STARLINK-3400,1 51128U 22005AA  22048.91667824 -.00092577  00000-0 -66083-3 0  9993,2 51128  53.2161 126.6349 0002880  13.0863 214.2909 15.73251022  6020,6727.75,91.53,351.552,347.677,0.0
51128.0,STARLINK-3400,PAYLOAD,2022-02-18 14:00:01,15.73115156,0.0003069,53.2156,123.3374,8.3927,36.8535,0.00041361,0.00057624,0.0,0 STARLINK-3400,1 51128U 22005AA  22049.58334491  .00057624  00000-0  41361-3 0  9992,2 51128  53.2156 123.3374 0003069   8.3927  36.8535 15.73115156  6125,6728.137,91.538,352.06699999999995,347.93699999999984,0.0
51128.0,STARLINK-3400,PAYLOAD,2022-02-18 20:00:01,15.73168556,0.000302,53.2149,122.0994,8.2692,13.6122,2.9436e-06,-2.1e-06,0.0,0 STARLINK-3400,1 51128U 22005AA  22049.83334491 -.00000210  00000-0  29436-5 0  9991,2 51128  53.2149 122.0994 0003020   8.2692  13.6122 15.73168556  3681,6727.985,91.535,351.88199999999995,347.8180000000001,0.0
51128.0,STARLINK-3400,PAYLOAD,2022-02-19 04:00:00,15.73182361,0.0002822,53.2152,120.4481,11.7589,99.155,0.00033259,0.00046284,0.0,0 STARLINK-3400,1 51128U 22005AA  22050.16667824  .00046284  00000-0  33259-3 0  9994,2 51128  53.2152 120.4481 0002822  11.7589  99.1550 15.73182361  6217,6727.945,91.534,351.709,347.912,0.0
51128.0,STARLINK-3400,PAYLOAD,2022-02-19 14:00:01,15.73207178,0.0003229,53.2154,118.3886,12.2206,299.8675,0.00041271,0.00057728,0.0,0 STARLINK-3400,1 51128U 22005AA  22050.58334491  .00057728  00000-0  41271-3 0  9999,2 51128  53.2154 118.3886 0003229  12.2206 299.8675 15.73207178  3698,6727.875,91.533,351.912,347.56699999999995,0.0
51128.0,STARLINK-3400,PAYLOAD,2022-02-19 20:00:01,15.73284269,0.000317,53.2151,117.15,13.3655,275.4392,-0.00076233,-0.00106684,0.0,0 STARLINK-3400,1 51128U 22005AA  22050.83334491 -.00106684  00000-0 -76233-3 0  9991,2 51128  53.2151 117.1500 0003170  13.3655 275.4392 15.73284269  3704,6727.655,91.528,351.653,347.38699999999994,0.0
51128.0,STARLINK-3400,PAYLOAD,2022-02-20 06:00:00,15.73215968,0.0003091,53.2151,115.0874,15.8802,114.1271,-0.00043435,-0.00061198,0.0,0 STARLINK-3400,1 51128U 22005AA  22051.25001157 -.00061198  00000-0 -43435-3 0  9996,2 51128  53.2151 115.0874 0003091  15.8802 114.1271 15.73215968  6380,6727.85,91.532,351.7940000000001,347.635,0.0
51128.0,STARLINK-3400,PAYLOAD,2022-02-20 14:00:01,15.73194352,0.0003346,53.2147,113.4396,13.1128,205.8433,1.7492e-06,-3.78e-06,0.0,0 STARLINK-3400,1 51128U 22005AA  22051.58334491 -.00000378  00000-0  17492-5 0  9990,2 51128  53.2147 113.4396 0003346  13.1128 205.8433 15.73194352  6449,6727.911,91.534,352.027,347.525,0.0
51128.0,STARLINK-3400,PAYLOAD,2022-02-20 22:00:00,15.73168237,0.0003116,53.2144,111.7882,11.9182,295.9667,0.00019886,0.00027345,0.0,0 STARLINK-3400,1 51128U 22005AA  22051.91667824  .00027345  00000-0  19886-3 0  9995,2 51128  53.2144 111.7882 0003116  11.9182 295.9667 15.73168237  3694,6727.986,91.535,351.94699999999995,347.754,0.0
51128.0,STARLINK-3400,PAYLOAD,2022-02-21 06:00:00,15.7319679,0.0003104,53.2147,110.1387,12.3371,24.4149,-2.9024e-05,-4.695e-05,0.0,0 STARLINK-3400,1 51128U 22005AA  22052.25001157 -.00004695  00000-0 -29024-4 0  9995,2 51128  53.2147 110.1387 0003104  12.3371  24.4149 15.73196790  6544,6727.904,91.533,351.858,347.681,0.0
51128.0,STARLINK-3400,PAYLOAD,2022-02-21 22:00:00,15.73167844,0.0003223,53.2149,106.8394,9.0274,205.5732,0.00033078,0.00046001,0.0,0 STARLINK-3400,1 51128U 22005AA  22052.91667824  .00046001  00000-0  33078-3 0  9995,2 51128  53.2149 106.8394 0003223   9.0274 205.5732 15.73167844  3694,6727.986999999999,91.535,352.02,347.68300000000005,0.0
51128.0,STARLINK-3400,PAYLOAD,2022-02-22 14:00:01,15.73140698,0.0003488,53.2144,103.5422,8.2038,24.2389,0.00061685,0.00086646,0.0,0 STARLINK-3400,1 51128U 22005AA  22053.58334491  .00086646  00000-0  61685-3 0  9994,2 51128  53.2144 103.5422 0003488   8.2038  24.2389 15.73140698  6759,6728.064,91.537,352.276,347.583,0.0
51128.0,STARLINK-3400,PAYLOAD,2022-02-22 22:00:00,15.73182929,0.0003225,53.2144,101.8906,8.6102,112.7381,0.00043674,0.00061086,0.0,0 STARLINK-3400,1 51128U 22005AA  22053.91667824  .00061086  00000-0  43674-3 0  9999,2 51128  53.2144 101.8906 0003225   8.6102 112.7381 15.73182929  3689,6727.944,91.534,351.97900000000016,347.639,0.0
51128.0,STARLINK-3400,PAYLOAD,2022-02-23 06:00:00,15.7325113,0.000325,53.2148,100.2415,10.3389,199.9414,2.0288e-05,2.231e-05,0.0,0 STARLINK-3400,1 51128U 22005AA  22054.25001157  .00002231  00000-0  20288-4 0  9992,2 51128  53.2148 100.2415 0003250  10.3389 199.9414 15.73251130  6864,6727.749,91.53,351.801,347.42800000000005,0.0
51128.0,STARLINK-3400,PAYLOAD,2022-02-23 14:00:01,15.73235645,0.0003541,53.2149,98.5934,8.6108,290.6522,-0.0004508,-0.00063536,0.0,0 STARLINK-3400,1 51128U 22005AA  22054.58334491 -.00063536  00000-0 -45080-3 0  9991,2 51128  53.2149  98.5934 0003541   8.6108 290.6522 15.73235645  6910,6727.794,91.531,352.041,347.276,0.0
51128.0,STARLINK-3400,PAYLOAD,2022-02-23 22:00:00,15.73148353,0.0003361,53.2151,96.9417,12.1042,16.1112,0.00033757,0.00046925,0.0,0 STARLINK-3400,1 51128U 22005AA  22054.91667824  .00046925  00000-0  33757-3 0  9996,2 51128  53.2151  96.9417 0003361  12.1042  16.1112 15.73148353  3718,6728.042,91.536,352.1690000000001,347.646,0.0
51128.0,STARLINK-3400,PAYLOAD,2022-02-24 06:00:00,15.73060924,0.0003612,53.2172,95.2747,10.0876,106.9174,0.0016684999999999,0.00238935,0.0,0 STARLINK-3400,1 51128U 22005AA  22055.25001157  .00238935  00000-0  16685-2 0  9999,2 51128  53.2172  95.2747 0003612  10.0876 106.9174 15.73060924  7010,6728.292,91.541,352.587,347.726,0.0
51128.0,STARLINK-3400,PAYLOAD,2022-02-24 14:00:01,15.73208378,0.0003656,53.2145,93.6447,12.8406,193.2669,0.00019012,0.0002616,0.0,0 STARLINK-3400,1 51128U 22005AA  22055.58334491  .00026160  00000-0  19012-3 0  9998,2 51128  53.2145  93.6447 0003656  12.8406 193.2669 15.73208378  3680,6727.871,91.533,352.196,347.277,0.0
